CUTE-1 (CO-55)          
1 27844U 03031E   26134.45837074  .00000206  00000+0  10824-3 0  9991
2 27844  98.6747 143.4411 0008314 285.6526  74.3735 14.24313954186871
CUBESAT XI-IV (CO-57)   
1 27848U 03031J   26134.00824506  .00000162  00000+0  90172-4 0  9998
2 27848  98.6778 142.7365 0008423 308.1331  51.9088 14.23601767186519
CUBESAT XI-V            
1 28895U 05043F   26134.36035510  .00000843  00000+0  14086-3 0  9999
2 28895  98.2947 289.2813 0013075 316.5599  43.4577 14.72538248 96773
CUTE-1.7+APD II (CO-65) 
1 32785U 08021C   26134.90069435  .00003501  00000+0  22476-3 0  9990
2 32785  97.8260 115.6397 0010135 134.5515 225.6543 15.09117448980177
CANX-2                  
1 32790U 08021H   26134.39090769  .00002037  00000+0  14656-3 0  9997
2 32790  97.8624 113.5237 0011316 149.0638 211.1257 15.05365543979724
SEEDS II (CO-66)        
1 32791U 08021J   26134.43520873  .00012321  00000+0  40678-3 0  9997
2 32791  97.7519 130.7557 0004959  81.4464 278.7338 15.31549810982121
SWISSCUBE               
1 35932U 09051B   26134.91701091  .00000600  00000+0  12839-3 0  9992
2 35932  98.4057  42.2242 0006055 327.5055  32.5773 14.62413178884291
BEESAT-1                
1 35933U 09051C   26134.97771477  .00000503  00000+0  11099-3 0  9993
2 35933  98.3986  41.9906 0004896 345.9552  14.1512 14.61662622884333
ITUPSAT1                
1 35935U 09051E   26134.66552721  .00000476  00000+0  10838-3 0  9999
2 35935  98.4072  40.9009 0007333 353.6738   6.4368 14.60387079883843
TISAT 1                 
1 36799U 10035E   26134.78472757  .00012471  00000+0  42707-3 0  9993
2 36799  98.0698  78.4110 0003368  49.8626 310.2907 15.30379883862591
AEROCUBE 4.5A           
1 38767U 12048K   26134.47773205  .00108232  00000+0  61636-3 0  9997
2 38767  64.6285 148.4178 0018950 216.6153 143.3707 15.78148103367317
STRAND-1                
1 39090U 13009E   26134.91581553  .00000169  00000+0  71390-4 0  9996
2 39090  98.3916 315.9707 0008070 338.4115  21.6730 14.37142585692287
BRITE-AUSTRIA           
1 39091U 13009F   26134.49649187  .00000105  00000+0  50335-4 0  9994
2 39091  98.3988 314.7677 0009840 347.7724  12.3223 14.36528000692211
NEE-01 PEGASO           
1 39151U 13018B   26134.36620653  .00001429  00000+0  14150-3 0  9998
2 39151  98.1179 277.4123 0011276 275.9610  84.0323 14.93487351705657
POPACS 2                
1 39269U 13055E   26134.41566796  .00010933  00000+0  18786-3 0  9991
2 39269  80.9927 182.8302 0419088 302.4348  53.6974 14.90433683658187
POPACS 3                
1 39270U 13055F   26134.78254294  .00011410  00000+0  27218-3 0  9991
2 39270  81.0009 265.3804 0554877 171.5725 189.5296 14.55285618633695
ZACUBE-1 (TSHEPISOSAT)  
1 39417U 13066B   26134.87679473  .00002987  00000+0  23526-3 0  9993
2 39417  97.8120  97.0329 0041625   5.1274 355.0367 15.00919176675736
WNISAT-1                
1 39423U 13066H   26134.37837611  .00000302  00000+0  64053-4 0  9995
2 39423  97.7160 285.9424 0162577 338.8769  20.5768 14.58018871661801
TRITON-1                
1 39427U 13066M   26134.93373875  .00001541  00000+0  18993-3 0  9995
2 39427  97.8270  45.4979 0089974 343.8519  15.9830 14.81553955669168
GOMX-1                  
1 39430U 13066Q   26134.81820477  .00001061  00000+0  16611-3 0  9993
2 39430  97.6513 337.3858 0128562 184.0279 175.9906 14.69321199665014
CUBEBUG-2 (LO-74)       
1 39440U 13066AA  26134.83474800  .00001711  00000+0  16284-3 0  9999
2 39440  97.8894  83.6844 0058944 136.7526 223.8343 14.93497683672015
NEE-02 KRYSAOR          
1 39441U 13066AB  26134.35146825  .00001015  00000+0  11674-3 0  9995
2 39441  97.8883  73.8149 0066172 179.3405 180.7910 14.86486503671172
FUNCUBE-1 (AO-73)       
1 39444U 13066AE  26134.90693761  .00004873  00000+0  30788-3 0  9997
2 39444  97.8260 105.6735 0035125 319.6582  40.2041 15.09039867674641
UWE-3                   
1 39446U 13066AG  26134.39102087  .00002385  00000+0  20878-3 0  9993
2 39446  97.8680  90.2510 0050701  72.7346 287.9414 14.96726381672529
BRITE-CA1 (TORONTO)     
1 40020U 14033L   26134.94844280  .00000412  00000+0  69591-4 0  9992
2 40020  97.9691 264.4990 0079141  24.3162 336.1748 14.72629327637329
DUCHIFAT-1              
1 40021U 14033M   26134.62963811  .00053765  00000+0  70248-3 0  9999
2 40021  98.0511 189.2547 0005972 182.0751 178.0479 15.58476397650514
NANOSATC-BR1            
1 40024U 14033Q   26134.34703057  .00011369  00000+0  39014-3 0  9995
2 40024  98.0751 163.7640 0001828 317.5003  42.6094 15.30342399648807
QB50P1                  
1 40025U 14033R   26134.46571616  .00005496  00000+0  27612-3 0  9998
2 40025  98.0977 143.2614 0008189 353.6222   6.4904 15.17714776647919
QB50P2                  
1 40032U 14033Y   26134.41388795  .00004460  00000+0  24479-3 0  9993
2 40032  98.0751 129.2058 0005761 296.2467  63.8170 15.14706291647551
PERSEUS-M2              
1 40037U 14033AD  26134.87556869  .00001347  00000+0  12729-3 0  9993
2 40037  97.9939  84.7443 0013256  54.6813 305.5645 14.95401273645803
